[
    {
        "iso2": "AF",
        "iso3": "AFG",
        "codeNum": "4",
        "nameFr": "Afghanistan",
        "nameEn": "Afghanistan",
        "capital": "Kaboul",
        "independent": true,
        "continent": "Asie",
        "nationality": "Afghane"
    },
    {
        "iso2": "ZA",
        "iso3": "ZAF",
        "codeNum": "710",
        "nameFr": "Afrique du Sud",
        "nameEn": "South Africa",
        "capital": "Pretoria",
        "independent": true,
        "continent": "Afrique",
        "nationality": "Sud-africaine"
    },
    {
        "iso2": "AX",
        "iso3": "ALA",
        "codeNum": "248",
        "nameFr": "Les Îles Åland",
        "nameEn": "Åland Islands",
        "capital": false,
        "independent": false,
        "continent": "Europe",
        "nationality": false
    },
    {
        "iso2": "AL",
        "iso3": "ALB",
        "codeNum": "8",
        "nameFr": "Albanie",
        "nameEn": "Albania",
        "capital": "Tirana",
        "independent": true,
        "continent": "Europe",
        "nationality": "Albanaise"
    },
    {
        "iso2": "DZ",
        "iso3": "DZA",
        "codeNum": "12",
        "nameFr": "Algérie",
        "nameEn": "Algeria",
        "capital": "Alger",
        "independent": true,
        "continent": "Afrique",
        "nationality": "Algérienne"
    },
    {
        "iso2": "DE",
        "iso3": "DEU",
        "codeNum": "276",
        "nameFr": "Allemagne",
        "nameEn": "Germany",
        "capital": "Berlin",
        "independent": true,
        "continent": "Europe",
        "nationality": "Allemande"
    },
    {
        "iso2": "AD",
        "iso3": "AND",
        "codeNum": "20",
        "nameFr": "Andorre",
        "nameEn": "Andorra",
        "capital": "Andorre-la-Vieille",
        "independent": true,
        "continent": "Europe",
        "nationality": "Andorrane"
    },
    {
        "iso2": "AO",
        "iso3": "AGO",
        "codeNum": "24",
        "nameFr": "Angola",
        "nameEn": "Angola",
        "capital": "Luanda",
        "independent": true,
        "continent": "Afrique",
        "nationality": "Angolaise"
    },
    {
        "iso2": "AI",
        "iso3": "AIA",
        "codeNum": "660",
        "nameFr": "Anguilla",
        "nameEn": "Anguilla",
        "capital": false,
        "independent": false,
        "continent": "Amérique du Nord",
        "nationality": false
    },
    {
        "iso2": "AQ",
        "iso3": "ATA",
        "codeNum": "10",
        "nameFr": "Antarctique",
        "nameEn": "Antarctica",
        "capital": false,
        "independent": false,
        "continent": "Antarctica",
        "nationality": false
    },
    {
        "iso2": "AG",
        "iso3": "ATG",
        "codeNum": "28",
        "nameFr": "Antigua-et-Barbuda",
        "nameEn": "Antigua and Barbuda",
        "capital": "Saint John's",
        "independent": true,
        "continent": "Amérique du Nord",
        "nationality": "Antiguaise et barbudienne"
    },
    {
        "iso2": "SA",
        "iso3": "SAU",
        "codeNum": "682",
        "nameFr": "Arabie saoudite",
        "nameEn": "Saudi Arabia",
        "capital": "Riyad",
        "independent": true,
        "continent": "Asie",
        "nationality": "Saoudienne"
    },
    {
        "iso2": "AR",
        "iso3": "ARG",
        "codeNum": "32",
        "nameFr": "Argentine",
        "nameEn": "Argentina",
        "capital": "Buenos Aires",
        "independent": true,
        "continent": "Amérique du Sud",
        "nationality": "Argentine"
    },
    {
        "iso2": "AM",
        "iso3": "ARM",
        "codeNum": "51",
        "nameFr": "Arménie",
        "nameEn": "Armenia",
        "capital": "Erevan",
        "independent": true,
        "continent": "Asie",
        "nationality": "Arménienne"
    },
    {
        "iso2": "AW",
        "iso3": "ABW",
        "codeNum": "533",
        "nameFr": "Aruba",
        "nameEn": "Aruba",
        "capital": false,
        "independent": false,
        "continent": "Amérique du Nord",
        "nationality": false
    },
    {
        "iso2": "AU",
        "iso3": "AUS",
        "codeNum": "36",
        "nameFr": "Australie",
        "nameEn": "Australia",
        "capital": "Canberra",
        "independent": true,
        "continent": "Océanie",
        "nationality": "Australienne"
    },
    {
        "iso2": "AT",
        "iso3": "AUT",
        "codeNum": "40",
        "nameFr": "Autriche",
        "nameEn": "Austria",
        "capital": "Vienne",
        "independent": true,
        "continent": "Europe",
        "nationality": "Autrichienne"
    },
    {
        "iso2": "AZ",
        "iso3": "AZE",
        "codeNum": "31",
        "nameFr": "Azerbaïdjan",
        "nameEn": "Azerbaijan",
        "capital": "Bakou",
        "independent": true,
        "continent": "Asie",
        "nationality": "Azerbaïdjanaise"
    },
    {
        "iso2": "BS",
        "iso3": "BHS",
        "codeNum": "44",
        "nameFr": "Bahamas",
        "nameEn": "Bahamas",
        "capital": "Nassau",
        "independent": true,
        "continent": "Amérique du Nord",
        "nationality": "Bahamienne"
    },
    {
        "iso2": "BH",
        "iso3": "BHR",
        "codeNum": "48",
        "nameFr": "Bahreïn",
        "nameEn": "Bahrain",
        "capital": "Manama",
        "independent": true,
        "continent": "Asie",
        "nationality": "Bahreinienne"
    },
    {
        "iso2": "BD",
        "iso3": "BGD",
        "codeNum": "50",
        "nameFr": "Bangladesh",
        "nameEn": "Bangladesh",
        "capital": "Dacca",
        "independent": true,
        "continent": "Asie",
        "nationality": "Bangladaise"
    },
    {
        "iso2": "BB",
        "iso3": "BRB",
        "codeNum": "52",
        "nameFr": "Barbade",
        "nameEn": "Barbados",
        "capital": "Bridgetown",
        "independent": true,
        "continent": "Amérique du Nord",
        "nationality": "Barbadienne"
    },
    {
        "iso2": "BY",
        "iso3": "BLR",
        "codeNum": "112",
        "nameFr": "Bélarus",
        "nameEn": "Belarus",
        "capital": "Minsk",
        "independent": true,
        "continent": "Europe",
        "nationality": "Biélorusse"
    },
    {
        "iso2": "BE",
        "iso3": "BEL",
        "codeNum": "56",
        "nameFr": "Belgique",
        "nameEn": "Belgium",
        "capital": "Bruxelles",
        "independent": true,
        "continent": "Europe",
        "nationality": "Belge"
    },
    {
        "iso2": "BZ",
        "iso3": "BLZ",
        "codeNum": "84",
        "nameFr": "Belize",
        "nameEn": "Belize",
        "capital": "Belmopan",
        "independent": true,
        "continent": "Amérique du Nord",
        "nationality": "Bélizienne"
    },
    {
        "iso2": "BJ",
        "iso3": "BEN",
        "codeNum": "204",
        "nameFr": "Bénin",
        "nameEn": "Benin",
        "capital": "Porto-Novo",
        "independent": true,
        "continent": "Afrique",
        "nationality": "Béninoise"
    },
    {
        "iso2": "BM",
        "iso3": "BMU",
        "codeNum": "60",
        "nameFr": "Bermudes",
        "nameEn": "Bermuda",
        "capital": false,
        "independent": false,
        "continent": "Amérique du Nord",
        "nationality": false
    },
    {
        "iso2": "BT",
        "iso3": "BTN",
        "codeNum": "64",
        "nameFr": "Bhoutan",
        "nameEn": "Bhutan",
        "capital": "Thimbu",
        "independent": true,
        "continent": "Asie",
        "nationality": "Bhoutanaise"
    },
    {
        "iso2": "BO",
        "iso3": "BOL",
        "codeNum": "68",
        "nameFr": "Bolivie",
        "nameEn": "Bolivia",
        "capital": "Sucre",
        "independent": true,
        "continent": "Amérique du Sud",
        "nationality": "Bolivienne"
    },
    {
        "iso2": "BQ",
        "iso3": "BES",
        "codeNum": "535",
        "nameFr": "Bonaire, Saint-Eustache et Saba",
        "nameEn": "Bonaire, Sint Eustatius and Saba",
        "capital": false,
        "independent": false,
        "continent": "Amérique du Nord",
        "nationality": false
    },
    {
        "iso2": "BA",
        "iso3": "BIH",
        "codeNum": "70",
        "nameFr": "Bosnie-Herzégovine",
        "nameEn": "Bosnia and Herzegovina",
        "capital": "Sarajevo",
        "independent": true,
        "continent": "Europe",
        "nationality": "Bosnienne"
    },
    {
        "iso2": "BW",
        "iso3": "BWA",
        "codeNum": "72",
        "nameFr": "Botswana",
        "nameEn": "Botswana",
        "capital": "Gaborone",
        "independent": true,
        "continent": "Afrique",
        "nationality": "Botswanaise"
    },
    {
        "iso2": "BV",
        "iso3": "BVT",
        "codeNum": "74",
        "nameFr": "Bouvet",
        "nameEn": "Bouvet Island",
        "capital": false,
        "independent": false,
        "continent": "Amérique du Sud",
        "nationality": false
    },
    {
        "iso2": "BR",
        "iso3": "BRA",
        "codeNum": "76",
        "nameFr": "Brésil",
        "nameEn": "Brazil",
        "capital": "Brasilia",
        "independent": true,
        "continent": "Amérique du Sud",
        "nationality": "Brésilienne"
    },
    {
        "iso2": "BN",
        "iso3": "BRN",
        "codeNum": "96",
        "nameFr": "Brunéi",
        "nameEn": "Brunei",
        "capital": "Bandar Seri Begawan",
        "independent": true,
        "continent": "Asie",
        "nationality": "Bruneienne"
    },
    {
        "iso2": "BG",
        "iso3": "BGR",
        "codeNum": "100",
        "nameFr": "Bulgarie",
        "nameEn": "Bulgaria",
        "capital": "Sofia",
        "independent": true,
        "continent": "Europe",
        "nationality": "Bulgare"
    },
    {
        "iso2": "BF",
        "iso3": "BFA",
        "codeNum": "854",
        "nameFr": "Burkina Faso",
        "nameEn": "Burkina Faso",
        "capital": "Ouagadougou",
        "independent": true,
        "continent": "Afrique",
        "nationality": "Burkinabé"
    },
    {
        "iso2": "BI",
        "iso3": "BDI",
        "codeNum": "108",
        "nameFr": "Burundi",
        "nameEn": "Burundi",
        "capital": "Bujumbura",
        "independent": true,
        "continent": "Afrique",
        "nationality": "Burundaise"
    },
    {
        "iso2": "CV",
        "iso3": "CPV",
        "codeNum": "132",
        "nameFr": "Cabo Verde",
        "nameEn": "Cabo Verde",
        "capital": "Praia",
        "independent": true,
        "continent": "Afrique",
        "nationality": "Cap-verdienne"
    },
    {
        "iso2": "KY",
        "iso3": "CYM",
        "codeNum": "136",
        "nameFr": "Les Îles Caïmans",
        "nameEn": "Cayman Islands",
        "capital": false,
        "independent": false,
        "continent": "Amérique du Nord",
        "nationality": false
    },
    {
        "iso2": "KH",
        "iso3": "KHM",
        "codeNum": "116",
        "nameFr": "Cambodge",
        "nameEn": "Cambodia",
        "capital": "Phnom Penh",
        "independent": true,
        "continent": "Asie",
        "nationality": "Cambodgienne"
    },
    {
        "iso2": "CM",
        "iso3": "CMR",
        "codeNum": "120",
        "nameFr": "Cameroun",
        "nameEn": "Cameroon",
        "capital": "Yaoundé",
        "independent": true,
        "continent": "Afrique",
        "nationality": "Camerounaise"
    },
    {
        "iso2": "CA",
        "iso3": "CAN",
        "codeNum": "124",
        "nameFr": "Canada",
        "nameEn": "Canada",
        "capital": "Ottawa",
        "independent": true,
        "continent": "Amérique du Nord",
        "nationality": "Canadienne"
    },
    {
        "iso2": "CL",
        "iso3": "CHL",
        "codeNum": "152",
        "nameFr": "Chili",
        "nameEn": "Chile",
        "capital": "Santiago",
        "independent": true,
        "continent": "Amérique du Sud",
        "nationality": "Chilienne"
    },
    {
        "iso2": "CN",
        "iso3": "CHN",
        "codeNum": "156",
        "nameFr": "Chine",
        "nameEn": "China",
        "capital": "Pékin",
        "independent": true,
        "continent": "Asie",
        "nationality": "Chinoise"
    },
    {
        "iso2": "CX",
        "iso3": "CXR",
        "codeNum": "162",
        "nameFr": "L'Île Christmas",
        "nameEn": "Christmas Island",
        "capital": false,
        "independent": false,
        "continent": "Océanie",
        "nationality": false
    },
    {
        "iso2": "CY",
        "iso3": "CYP",
        "codeNum": "196",
        "nameFr": "Chypre",
        "nameEn": "Cyprus",
        "capital": "Nicosie",
        "independent": true,
        "continent": "Asie",
        "nationality": "Chypriote"
    },
    {
        "iso2": "CC",
        "iso3": "CCK",
        "codeNum": "166",
        "nameFr": "Les Îles Cocos",
        "nameEn": "Cocos Islands",
        "capital": false,
        "independent": false,
        "continent": "Océanie",
        "nationality": false
    },
    {
        "iso2": "CO",
        "iso3": "COL",
        "codeNum": "170",
        "nameFr": "Colombie",
        "nameEn": "Colombia",
        "capital": "Bogota",
        "independent": true,
        "continent": "Amérique du Sud",
        "nationality": "Colombienne"
    },
    {
        "iso2": "KM",
        "iso3": "COM",
        "codeNum": "174",
        "nameFr": "Comores",
        "nameEn": "Comoros",
        "capital": "Moroni",
        "independent": true,
        "continent": "Afrique",
        "nationality": "Comorienne"
    },
    {
        "iso2": "CG",
        "iso3": "COG",
        "codeNum": "178",
        "nameFr": "Congo",
        "nameEn": "Congo",
        "capital": "Brazzaville",
        "independent": true,
        "continent": "Afrique",
        "nationality": "Congolaise"
    },
    {
        "iso2": "CD",
        "iso3": "COD",
        "codeNum": "180",
        "nameFr": "République démocratique du Congo",
        "nameEn": "the Democratic Republic of the Congo",
        "capital": "Kinshasa",
        "independent": true,
        "continent": "Afrique",
        "nationality": "Congolaise"
    },
    {
        "iso2": "CK",
        "iso3": "COK",
        "codeNum": "184",
        "nameFr": "Les Îles Cook",
        "nameEn": "Cook Islands",
        "capital": false,
        "independent": false,
        "continent": "Océanie",
        "nationality": false
    },
    {
        "iso2": "KR",
        "iso3": "KOR",
        "codeNum": "410",
        "nameFr": "Corée du Sud",
        "nameEn": "South Korea",
        "capital": "Séoul",
        "independent": true,
        "continent": "Asie",
        "nationality": "Sud-coréenne"
    },
    {
        "iso2": "KP",
        "iso3": "PRK",
        "codeNum": "408",
        "nameFr": "Corée du Nord",
        "nameEn": "North Korea",
        "capital": "Pyongyang",
        "independent": true,
        "continent": "Asie",
        "nationality": "Nord-coréenne"
    },
    {
        "iso2": "CR",
        "iso3": "CRI",
        "codeNum": "188",
        "nameFr": "Costa Rica",
        "nameEn": "Costa Rica",
        "capital": "San José",
        "independent": true,
        "continent": "Amérique du Nord",
        "nationality": "Costaricaine"
    },
    {
        "iso2": "CI",
        "iso3": "CIV",
        "codeNum": "384",
        "nameFr": "Côte d'Ivoire",
        "nameEn": "Côte d'Ivoire",
        "capital": "Yamoussoukro",
        "independent": true,
        "continent": "Afrique",
        "nationality": "Ivoirienne"
    },
    {
        "iso2": "HR",
        "iso3": "HRV",
        "codeNum": "191",
        "nameFr": "Croatie",
        "nameEn": "Croatia",
        "capital": "Zagreb",
        "independent": true,
        "continent": "Europe",
        "nationality": "Croate"
    },
    {
        "iso2": "CU",
        "iso3": "CUB",
        "codeNum": "192",
        "nameFr": "Cuba",
        "nameEn": "Cuba",
        "capital": "La Havane",
        "independent": true,
        "continent": "Amérique du Nord",
        "nationality": "Cubaine"
    },
    {
        "iso2": "CW",
        "iso3": "CUW",
        "codeNum": "531",
        "nameFr": "Curaçao",
        "nameEn": "Curaçao",
        "capital": false,
        "independent": false,
        "continent": "Amérique du Nord",
        "nationality": false
    },
    {
        "iso2": "DK",
        "iso3": "DNK",
        "codeNum": "208",
        "nameFr": "Danemark",
        "nameEn": "Denmark",
        "capital": "Copenhague",
        "independent": true,
        "continent": "Europe",
        "nationality": "Danoise"
    },
    {
        "iso2": "DJ",
        "iso3": "DJI",
        "codeNum": "262",
        "nameFr": "Djibouti",
        "nameEn": "Djibouti",
        "capital": "Djibouti",
        "independent": true,
        "continent": "Afrique",
        "nationality": "Djiboutienne"
    },
    {
        "iso2": "DO",
        "iso3": "DOM",
        "codeNum": "214",
        "nameFr": "République dominicaine",
        "nameEn": "Dominican Republic",
        "capital": "Saint-Domingue",
        "independent": true,
        "continent": "Amérique du Nord",
        "nationality": "Dominicaine"
    },
    {
        "iso2": "DM",
        "iso3": "DMA",
        "codeNum": "212",
        "nameFr": "Dominique",
        "nameEn": "Dominica",
        "capital": "Roseau",
        "independent": true,
        "continent": "Amérique du Nord",
        "nationality": "Dominiquaise"
    },
    {
        "iso2": "EG",
        "iso3": "EGY",
        "codeNum": "818",
        "nameFr": "Égypte",
        "nameEn": "Egypt",
        "capital": "Le Caire",
        "independent": true,
        "continent": "Afrique",
        "nationality": "Egyptienne"
    },
    {
        "iso2": "SV",
        "iso3": "SLV",
        "codeNum": "222",
        "nameFr": "El Salvador",
        "nameEn": "El Salvador",
        "capital": "San Salvador",
        "independent": true,
        "continent": "Amérique du Nord",
        "nationality": "Salvadorienne"
    },
    {
        "iso2": "AE",
        "iso3": "ARE",
        "codeNum": "784",
        "nameFr": "Émirats arabes unis",
        "nameEn": "United Arab Emirates",
        "capital": "Abu Dhabi",
        "independent": true,
        "continent": "Asie",
        "nationality": "Emirienne"
    },
    {
        "iso2": "EC",
        "iso3": "ECU",
        "codeNum": "218",
        "nameFr": "Équateur",
        "nameEn": "Ecuador",
        "capital": "Quito",
        "independent": true,
        "continent": "Amérique du Sud",
        "nationality": "Equatorienne"
    },
    {
        "iso2": "ER",
        "iso3": "ERI",
        "codeNum": "232",
        "nameFr": "Érythrée",
        "nameEn": "Eritrea",
        "capital": "Asmara",
        "independent": true,
        "continent": "Afrique",
        "nationality": "Erythréenne"
    },
    {
        "iso2": "ES",
        "iso3": "ESP",
        "codeNum": "724",
        "nameFr": "Espagne",
        "nameEn": "Spain",
        "capital": "Madrid",
        "independent": true,
        "continent": "Europe",
        "nationality": "Espagnole"
    },
    {
        "iso2": "EE",
        "iso3": "EST",
        "codeNum": "233",
        "nameFr": "Estonie",
        "nameEn": "Estonia",
        "capital": "Tallinn",
        "independent": true,
        "continent": "Europe",
        "nationality": "Estonienne"
    },
    {
        "iso2": "SZ",
        "iso3": "SWZ",
        "codeNum": "748",
        "nameFr": "Eswatini",
        "nameEn": "Eswatini",
        "capital": "Mbabane",
        "independent": true,
        "continent": "Afrique"
    },
    {
        "iso2": "US",
        "iso3": "USA",
        "codeNum": "840",
        "nameFr": "États-Unis",
        "nameEn": "United States of America",
        "capital": "Washington",
        "independent": true,
        "continent": "Amérique du Nord",
        "nationality": "Américaine"
    },
    {
        "iso2": "ET",
        "iso3": "ETH",
        "codeNum": "231",
        "nameFr": "Éthiopie",
        "nameEn": "Ethiopia",
        "capital": "Addis-Abeba",
        "independent": true,
        "continent": "Afrique",
        "nationality": "Ethiopienne"
    },
    {
        "iso2": "FK",
        "iso3": "FLK",
        "codeNum": "238",
        "nameFr": "Les Îles Falkland",
        "nameEn": "Falkland Islands",
        "capital": false,
        "independent": false,
        "continent": "Amérique du Sud",
        "nationality": false
    },
    {
        "iso2": "FO",
        "iso3": "FRO",
        "codeNum": "234",
        "nameFr": "Les Îles Féroé",
        "nameEn": "Faroe Islands",
        "capital": false,
        "independent": false,
        "continent": "Europe",
        "nationality": false
    },
    {
        "iso2": "FJ",
        "iso3": "FJI",
        "codeNum": "242",
        "nameFr": "Fidji",
        "nameEn": "Fiji",
        "capital": "Suva",
        "independent": true,
        "continent": "Océanie",
        "nationality": "Fidjienne"
    },
    {
        "iso2": "FI",
        "iso3": "FIN",
        "codeNum": "246",
        "nameFr": "Finlande",
        "nameEn": "Finland",
        "capital": "Helsinki",
        "independent": true,
        "continent": "Europe",
        "nationality": "Finlandaise"
    },
    {
        "iso2": "FR",
        "iso3": "FRA",
        "codeNum": "250",
        "nameFr": "France",
        "nameEn": "France",
        "capital": "Paris",
        "independent": true,
        "continent": "Europe",
        "nationality": "Française"
    },
    {
        "iso2": "GA",
        "iso3": "GAB",
        "codeNum": "266",
        "nameFr": "Gabon",
        "nameEn": "Gabon",
        "capital": "Libreville",
        "independent": true,
        "continent": "Afrique",
        "nationality": "Gabonaise"
    },
    {
        "iso2": "GM",
        "iso3": "GMB",
        "codeNum": "270",
        "nameFr": "Gambie",
        "nameEn": "Gambia",
        "capital": "Banjul",
        "independent": true,
        "continent": "Afrique",
        "nationality": "Gambienne"
    },
    {
        "iso2": "GE",
        "iso3": "GEO",
        "codeNum": "268",
        "nameFr": "Géorgie",
        "nameEn": "Georgia",
        "capital": "Tbilissi",
        "independent": true,
        "continent": "Asie",
        "nationality": "Georgienne"
    },
    {
        "iso2": "GS",
        "iso3": "SGS",
        "codeNum": "239",
        "nameFr": "Géorgie du Sud-et-les Îles Sandwich du Sud",
        "nameEn": "South Georgia and the South Sandwich Islands",
        "capital": false,
        "independent": false,
        "continent": "Amérique du Sud",
        "nationality": false
    },
    {
        "iso2": "GH",
        "iso3": "GHA",
        "codeNum": "288",
        "nameFr": "Ghana",
        "nameEn": "Ghana",
        "capital": "Accra",
        "independent": true,
        "continent": "Afrique",
        "nationality": "Ghanéenne"
    },
    {
        "iso2": "GI",
        "iso3": "GIB",
        "codeNum": "292",
        "nameFr": "Gibraltar",
        "nameEn": "Gibraltar",
        "capital": false,
        "independent": false,
        "continent": "Europe",
        "nationality": false
    },
    {
        "iso2": "GR",
        "iso3": "GRC",
        "codeNum": "300",
        "nameFr": "Grèce",
        "nameEn": "Greece",
        "capital": "Athènes",
        "independent": true,
        "continent": "Europe",
        "nationality": "Hellénique"
    },
    {
        "iso2": "GD",
        "iso3": "GRD",
        "codeNum": "308",
        "nameFr": "Grenade",
        "nameEn": "Grenada",
        "capital": "Saint George's",
        "independent": true,
        "continent": "Amérique du Nord",
        "nationality": "Grenadienne"
    },
    {
        "iso2": "GL",
        "iso3": "GRL",
        "codeNum": "304",
        "nameFr": "Groenland",
        "nameEn": "Greenland",
        "capital": false,
        "independent": false,
        "continent": "Amérique du Nord",
        "nationality": false
    },
    {
        "iso2": "GP",
        "iso3": "GLP",
        "codeNum": "312",
        "nameFr": "Guadeloupe",
        "nameEn": "Guadeloupe",
        "capital": false,
        "independent": false,
        "continent": "Amérique du Nord",
        "nationality": false
    },
    {
        "iso2": "GU",
        "iso3": "GUM",
        "codeNum": "316",
        "nameFr": "Guam",
        "nameEn": "Guam",
        "capital": false,
        "independent": false,
        "continent": "Océanie",
        "nationality": false
    },
    {
        "iso2": "GT",
        "iso3": "GTM",
        "codeNum": "320",
        "nameFr": "Guatemala",
        "nameEn": "Guatemala",
        "capital": "Guatemala",
        "independent": true,
        "continent": "Amérique du Nord",
        "nationality": "Guatemaltèque"
    },
    {
        "iso2": "GG",
        "iso3": "GGY",
        "codeNum": "831",
        "nameFr": "Guernesey",
        "nameEn": "Guernsey",
        "capital": false,
        "independent": false,
        "continent": "Europe",
        "nationality": false
    },
    {
        "iso2": "GN",
        "iso3": "GIN",
        "codeNum": "324",
        "nameFr": "Guinée",
        "nameEn": "Guinea",
        "capital": "Conakry",
        "independent": true,
        "continent": "Afrique",
        "nationality": "Guinéenne"
    },
    {
        "iso2": "GQ",
        "iso3": "GNQ",
        "codeNum": "226",
        "nameFr": "Guinée équatoriale",
        "nameEn": "Equatorial Guinea",
        "capital": "Malabo",
        "independent": true,
        "continent": "Afrique",
        "nationality": "Equato-guinéenne"
    },
    {
        "iso2": "GW",
        "iso3": "GNB",
        "codeNum": "624",
        "nameFr": "Guinée-Bissau",
        "nameEn": "Guinea-Bissau",
        "capital": "Bissau",
        "independent": true,
        "continent": "Afrique",
        "nationality": "Bissau-Guinéenne"
    },
    {
        "iso2": "GY",
        "iso3": "GUY",
        "codeNum": "328",
        "nameFr": "Guyana",
        "nameEn": "Guyana",
        "capital": "Georgetown",
        "independent": true,
        "continent": "Amérique du Sud",
        "nationality": "Guyanaise"
    },
    {
        "iso2": "GF",
        "iso3": "GUF",
        "codeNum": "254",
        "nameFr": "Guyane française",
        "nameEn": "French Guiana",
        "capital": false,
        "independent": false,
        "continent": "Amérique du Sud",
        "nationality": "Guyanienne"
    },
    {
        "iso2": "HT",
        "iso3": "HTI",
        "codeNum": "332",
        "nameFr": "Haïti",
        "nameEn": "Haiti",
        "capital": "Port-au-Prince",
        "independent": true,
        "continent": "Amérique du Nord",
        "nationality": "Haïtienne"
    },
    {
        "iso2": "HM",
        "iso3": "HMD",
        "codeNum": "334",
        "nameFr": "L'Île Heard-et-Îles MacDonald",
        "nameEn": "Heard Island and McDonald Islands",
        "capital": false,
        "independent": false,
        "continent": "Océanie",
        "nationality": false
    },
    {
        "iso2": "HN",
        "iso3": "HND",
        "codeNum": "340",
        "nameFr": "Honduras",
        "nameEn": "Honduras",
        "capital": "Tegucigalpa",
        "independent": true,
        "continent": "Amérique du Nord",
        "nationality": "Hondurienne"
    },
    {
        "iso2": "HK",
        "iso3": "HKG",
        "codeNum": "344",
        "nameFr": "Hong Kong",
        "nameEn": "Hong Kong",
        "capital": false,
        "independent": false,
        "continent": "Asie",
        "nationality": false
    },
    {
        "iso2": "HU",
        "iso3": "HUN",
        "codeNum": "348",
        "nameFr": "Hongrie",
        "nameEn": "Hungary",
        "capital": "Budapest",
        "independent": true,
        "continent": "Europe",
        "nationality": "Hongroise"
    },
    {
        "iso2": "IM",
        "iso3": "IMN",
        "codeNum": "833",
        "nameFr": "Île de Man",
        "nameEn": "Isle of Man",
        "capital": false,
        "independent": false,
        "continent": "Europe",
        "nationality": false
    },
    {
        "iso2": "UM",
        "iso3": "UMI",
        "codeNum": "581",
        "nameFr": "Îles mineures éloignées des États-Unis",
        "nameEn": "United States Minor Outlying Islands",
        "capital": false,
        "independent": false,
        "continent": "Océanie",
        "nationality": false
    },
    {
        "iso2": "IN",
        "iso3": "IND",
        "codeNum": "356",
        "nameFr": "Inde",
        "nameEn": "India",
        "capital": "New Delhi",
        "independent": true,
        "continent": "Asie",
        "nationality": "Indienne"
    },
    {
        "iso2": "IO",
        "iso3": "IOT",
        "codeNum": "86",
        "nameFr": "Le Territoire britannique de l'océan Indien",
        "nameEn": "British Indian Ocean Territory",
        "capital": false,
        "independent": false,
        "continent": "Afrique",
        "nationality": false
    },
    {
        "iso2": "ID",
        "iso3": "IDN",
        "codeNum": "360",
        "nameFr": "Indonésie",
        "nameEn": "Indonesia",
        "capital": "Jakarta",
        "independent": true,
        "continent": "Asie",
        "nationality": "Indonésienne"
    },
    {
        "iso2": "IR",
        "iso3": "IRN",
        "codeNum": "364",
        "nameFr": "Iran",
        "nameEn": "Iran",
        "capital": "Téhéran",
        "independent": true,
        "continent": "Asie",
        "nationality": "Iranienne"
    },
    {
        "iso2": "IQ",
        "iso3": "IRQ",
        "codeNum": "368",
        "nameFr": "Iraq",
        "nameEn": "Iraq",
        "capital": "Bagdad",
        "independent": true,
        "continent": "Asie",
        "nationality": "Irakienne"
    },
    {
        "iso2": "IE",
        "iso3": "IRL",
        "codeNum": "372",
        "nameFr": "Irlande",
        "nameEn": "Ireland",
        "capital": "Dublin",
        "independent": true,
        "continent": "Europe",
        "nationality": "Irlandaise"
    },
    {
        "iso2": "IS",
        "iso3": "ISL",
        "codeNum": "352",
        "nameFr": "Islande",
        "nameEn": "Iceland",
        "capital": "Reykjavik",
        "independent": true,
        "continent": "Europe",
        "nationality": "Islandaise"
    },
    {
        "iso2": "IL",
        "iso3": "ISR",
        "codeNum": "376",
        "nameFr": "Israël",
        "nameEn": "Israel",
        "capital": "Jérusalem",
        "independent": true,
        "continent": "Asie",
        "nationality": "Israélienne"
    },
    {
        "iso2": "IT",
        "iso3": "ITA",
        "codeNum": "380",
        "nameFr": "Italie",
        "nameEn": "Italy",
        "capital": "Rome",
        "independent": true,
        "continent": "Europe",
        "nationality": "Italienne"
    },
    {
        "iso2": "JM",
        "iso3": "JAM",
        "codeNum": "388",
        "nameFr": "Jamaïque",
        "nameEn": "Jamaica",
        "capital": "Kingston",
        "independent": true,
        "continent": "Amérique du Nord",
        "nationality": "Jamaïcaine"
    },
    {
        "iso2": "JP",
        "iso3": "JPN",
        "codeNum": "392",
        "nameFr": "Japon",
        "nameEn": "Japan",
        "capital": "Tokyo",
        "independent": true,
        "continent": "Asie",
        "nationality": "Japonaise"
    },
    {
        "iso2": "JE",
        "iso3": "JEY",
        "codeNum": "832",
        "nameFr": "Jersey",
        "nameEn": "Jersey",
        "capital": false,
        "independent": false,
        "continent": "Europe",
        "nationality": false
    },
    {
        "iso2": "JO",
        "iso3": "JOR",
        "codeNum": "400",
        "nameFr": "Jordanie",
        "nameEn": "Jordan",
        "capital": "Amman",
        "independent": true,
        "continent": "Asie",
        "nationality": "Jordanienne"
    },
    {
        "iso2": "KZ",
        "iso3": "KAZ",
        "codeNum": "398",
        "nameFr": "Kazakhstan",
        "nameEn": "Kazakhstan",
        "capital": "Astana",
        "independent": true,
        "continent": "Asie",
        "nationality": "Kazakhstanaise"
    },
    {
        "iso2": "KE",
        "iso3": "KEN",
        "codeNum": "404",
        "nameFr": "Kenya",
        "nameEn": "Kenya",
        "capital": "Nairobi",
        "independent": true,
        "continent": "Afrique",
        "nationality": "Kenyane"
    },
    {
        "iso2": "KG",
        "iso3": "KGZ",
        "codeNum": "417",
        "nameFr": "Kirghizistan",
        "nameEn": "Kyrgyzstan",
        "capital": "Bichkek",
        "independent": true,
        "continent": "Asie",
        "nationality": "Kirghize"
    },
    {
        "iso2": "KI",
        "iso3": "KIR",
        "codeNum": "296",
        "nameFr": "Kiribati",
        "nameEn": "Kiribati",
        "capital": "Tarawa",
        "independent": true,
        "continent": "Océanie",
        "nationality": "Kiribatienne"
    },
    {
        "iso2": "KW",
        "iso3": "KWT",
        "codeNum": "414",
        "nameFr": "Koweït",
        "nameEn": "Kuwait",
        "capital": "Koweït",
        "independent": true,
        "continent": "Asie",
        "nationality": "Koweitienne"
    },
    {
        "iso2": "LA",
        "iso3": "LAO",
        "codeNum": "418",
        "nameFr": "Laos",
        "nameEn": "Laos",
        "capital": "Vientiane",
        "independent": true,
        "continent": "Asie",
        "nationality": "Laotienne"
    },
    {
        "iso2": "LS",
        "iso3": "LSO",
        "codeNum": "426",
        "nameFr": "Lesotho",
        "nameEn": "Lesotho",
        "capital": "Maseru",
        "independent": true,
        "continent": "Afrique",
        "nationality": "Lesothane"
    },
    {
        "iso2": "LV",
        "iso3": "LVA",
        "codeNum": "428",
        "nameFr": "Lettonie",
        "nameEn": "Latvia",
        "capital": "Riga",
        "independent": true,
        "continent": "Europe",
        "nationality": "Lettone"
    },
    {
        "iso2": "LB",
        "iso3": "LBN",
        "codeNum": "422",
        "nameFr": "Liban",
        "nameEn": "Lebanon",
        "capital": "Beyrouth",
        "independent": true,
        "continent": "Asie",
        "nationality": "Libanaise"
    },
    {
        "iso2": "LR",
        "iso3": "LBR",
        "codeNum": "430",
        "nameFr": "Libéria",
        "nameEn": "Liberia",
        "capital": "Monrovia",
        "independent": true,
        "continent": "Afrique",
        "nationality": "Libérienne"
    },
    {
        "iso2": "LY",
        "iso3": "LBY",
        "codeNum": "434",
        "nameFr": "Libye",
        "nameEn": "Libya",
        "capital": "Tripoli",
        "independent": true,
        "continent": "Afrique",
        "nationality": "Libyenne"
    },
    {
        "iso2": "LI",
        "iso3": "LIE",
        "codeNum": "438",
        "nameFr": "Liechtenstein",
        "nameEn": "Liechtenstein",
        "capital": "Vaduz",
        "independent": true,
        "continent": "Europe",
        "nationality": "Liechtensteinoise"
    },
    {
        "iso2": "LT",
        "iso3": "LTU",
        "codeNum": "440",
        "nameFr": "Lituanie",
        "nameEn": "Lithuania",
        "capital": "Vilnius",
        "independent": true,
        "continent": "Europe",
        "nationality": "Lituanienne"
    },
    {
        "iso2": "LU",
        "iso3": "LUX",
        "codeNum": "442",
        "nameFr": "Luxembourg",
        "nameEn": "Luxembourg",
        "capital": "Luxembourg",
        "independent": true,
        "continent": "Europe",
        "nationality": "Luxembourgeoise"
    },
    {
        "iso2": "MO",
        "iso3": "MAC",
        "codeNum": "446",
        "nameFr": "Macao",
        "nameEn": "Macao",
        "capital": false,
        "independent": false,
        "continent": "Asie",
        "nationality": false
    },
    {
        "iso2": "MK",
        "iso3": "MKD",
        "codeNum": "807",
        "nameFr": "Macédoine du Nord",
        "nameEn": "North Macedonia",
        "capital": "Skopje",
        "independent": true,
        "continent": "Europe",
        "nationality": "Macédonienne"
    },
    {
        "iso2": "MG",
        "iso3": "MDG",
        "codeNum": "450",
        "nameFr": "Madagascar",
        "nameEn": "Madagascar",
        "capital": "Antananarivo",
        "independent": true,
        "continent": "Afrique",
        "nationality": "Malgache"
    },
    {
        "iso2": "MY",
        "iso3": "MYS",
        "codeNum": "458",
        "nameFr": "Malaisie",
        "nameEn": "Malaysia",
        "capital": "Kuala Lumpur",
        "independent": true,
        "continent": "Asie",
        "nationality": "Malaisienne"
    },
    {
        "iso2": "MW",
        "iso3": "MWI",
        "codeNum": "454",
        "nameFr": "Malawi",
        "nameEn": "Malawi",
        "capital": "Lilongwe",
        "independent": true,
        "continent": "Afrique",
        "nationality": "Malawienne"
    },
    {
        "iso2": "MV",
        "iso3": "MDV",
        "codeNum": "462",
        "nameFr": "Maldives",
        "nameEn": "Maldives",
        "capital": "Malé",
        "independent": true,
        "continent": "Asie",
        "nationality": "Maldivienne"
    },
    {
        "iso2": "ML",
        "iso3": "MLI",
        "codeNum": "466",
        "nameFr": "Mali",
        "nameEn": "Mali",
        "capital": "Bamako",
        "independent": true,
        "continent": "Afrique",
        "nationality": "Malienne"
    },
    {
        "iso2": "MT",
        "iso3": "MLT",
        "codeNum": "470",
        "nameFr": "Malte",
        "nameEn": "Malta",
        "capital": "La Valette",
        "independent": true,
        "continent": "Europe",
        "nationality": "Maltaise"
    },
    {
        "iso2": "MP",
        "iso3": "MNP",
        "codeNum": "580",
        "nameFr": "Les Îles Mariannes du Nord",
        "nameEn": "Northern Mariana Islands",
        "capital": false,
        "independent": false,
        "continent": "Océanie",
        "nationality": false
    },
    {
        "iso2": "MA",
        "iso3": "MAR",
        "codeNum": "504",
        "nameFr": "Maroc",
        "nameEn": "Morocco",
        "capital": "Rabat",
        "independent": true,
        "continent": "Afrique",
        "nationality": "Marocaine"
    },
    {
        "iso2": "MH",
        "iso3": "MHL",
        "codeNum": "584",
        "nameFr": "Les Îles Marshall",
        "nameEn": "Marshall Islands",
        "capital": "Majuro",
        "independent": true,
        "continent": "Océanie",
        "nationality": "Marshallaise"
    },
    {
        "iso2": "MQ",
        "iso3": "MTQ",
        "codeNum": "474",
        "nameFr": "Martinique",
        "nameEn": "Martinique",
        "capital": false,
        "independent": false,
        "continent": "Amérique du Nord",
        "nationality": false
    },
    {
        "iso2": "MU",
        "iso3": "MUS",
        "codeNum": "480",
        "nameFr": "Maurice",
        "nameEn": "Mauritius",
        "capital": "Port Louis",
        "independent": true,
        "continent": "Afrique",
        "nationality": "Mauricienne"
    },
    {
        "iso2": "MR",
        "iso3": "MRT",
        "codeNum": "478",
        "nameFr": "Mauritanie",
        "nameEn": "Mauritania",
        "capital": "Nouakchott",
        "independent": true,
        "continent": "Afrique",
        "nationality": "Mauritanienne"
    },
    {
        "iso2": "YT",
        "iso3": "MYT",
        "codeNum": "175",
        "nameFr": "Mayotte",
        "nameEn": "Mayotte",
        "capital": false,
        "independent": false,
        "continent": "Afrique",
        "nationality": false
    },
    {
        "iso2": "MX",
        "iso3": "MEX",
        "codeNum": "484",
        "nameFr": "Mexique",
        "nameEn": "Mexico",
        "capital": "Mexico",
        "independent": true,
        "continent": "Amérique du Nord",
        "nationality": "Mexicaine"
    },
    {
        "iso2": "FM",
        "iso3": "FSM",
        "codeNum": "583",
        "nameFr": "Micronésie",
        "nameEn": "Micronesia",
        "capital": "Palikir",
        "independent": true,
        "continent": "Océanie",
        "nationality": "Micronésienne"
    },
    {
        "iso2": "MD",
        "iso3": "MDA",
        "codeNum": "498",
        "nameFr": "Moldavie",
        "nameEn": "Moldova",
        "capital": "Chisinau",
        "independent": true,
        "continent": "Europe",
        "nationality": "Moldave"
    },
    {
        "iso2": "MC",
        "iso3": "MCO",
        "codeNum": "492",
        "nameFr": "Monaco",
        "nameEn": "Monaco",
        "capital": "Monaco",
        "independent": true,
        "continent": "Europe",
        "nationality": "Monégasque"
    },
    {
        "iso2": "MN",
        "iso3": "MNG",
        "codeNum": "496",
        "nameFr": "Mongolie",
        "nameEn": "Mongolia",
        "capital": "Oulan-Bator",
        "independent": true,
        "continent": "Asie",
        "nationality": "Mongole"
    },
    {
        "iso2": "ME",
        "iso3": "MNE",
        "codeNum": "499",
        "nameFr": "Monténégro",
        "nameEn": "Montenegro",
        "capital": "Podgorica",
        "independent": true,
        "continent": "Europe",
        "nationality": "Monténégrine"
    },
    {
        "iso2": "MS",
        "iso3": "MSR",
        "codeNum": "500",
        "nameFr": "Montserrat",
        "nameEn": "Montserrat",
        "capital": false,
        "independent": false,
        "continent": "Amérique du Nord",
        "nationality": false
    },
    {
        "iso2": "MZ",
        "iso3": "MOZ",
        "codeNum": "508",
        "nameFr": "Mozambique",
        "nameEn": "Mozambique",
        "capital": "Maputo",
        "independent": true,
        "continent": "Afrique",
        "nationality": "Mozambicaine"
    },
    {
        "iso2": "MM",
        "iso3": "MMR",
        "codeNum": "104",
        "nameFr": "Myanmar",
        "nameEn": "Myanmar",
        "capital": "Naypyidaw",
        "independent": true,
        "continent": "Asie",
        "nationality": "Birmane"
    },
    {
        "iso2": "NA",
        "iso3": "NAM",
        "codeNum": "516",
        "nameFr": "Namibie",
        "nameEn": "Namibia",
        "capital": "Windhoek",
        "independent": true,
        "continent": "Afrique",
        "nationality": "Namibienne"
    },
    {
        "iso2": "NR",
        "iso3": "NRU",
        "codeNum": "520",
        "nameFr": "Nauru",
        "nameEn": "Nauru",
        "capital": "Yaren",
        "independent": true,
        "continent": "Océanie",
        "nationality": "Nauruane"
    },
    {
        "iso2": "NP",
        "iso3": "NPL",
        "codeNum": "524",
        "nameFr": "Népal",
        "nameEn": "Nepal",
        "capital": "Katmandou",
        "independent": true,
        "continent": "Asie",
        "nationality": "Népalaise"
    },
    {
        "iso2": "NI",
        "iso3": "NIC",
        "codeNum": "558",
        "nameFr": "Nicaragua",
        "nameEn": "Nicaragua",
        "capital": "Managua",
        "independent": true,
        "continent": "Amérique du Nord",
        "nationality": "Nicaraguayenne"
    },
    {
        "iso2": "NE",
        "iso3": "NER",
        "codeNum": "562",
        "nameFr": "Niger",
        "nameEn": "Niger",
        "capital": "Niamey",
        "independent": true,
        "continent": "Afrique",
        "nationality": "Nigérienne"
    },
    {
        "iso2": "NG",
        "iso3": "NGA",
        "codeNum": "566",
        "nameFr": "Nigéria",
        "nameEn": "Nigeria",
        "capital": "Abuja",
        "independent": true,
        "continent": "Afrique",
        "nationality": "Nigériane"
    },
    {
        "iso2": "NU",
        "iso3": "NIU",
        "codeNum": "570",
        "nameFr": "Niue",
        "nameEn": "Niue",
        "capital": false,
        "independent": false,
        "continent": "Océanie",
        "nationality": false
    },
    {
        "iso2": "NF",
        "iso3": "NFK",
        "codeNum": "574",
        "nameFr": "L'Île Norfolk",
        "nameEn": "Norfolk Island",
        "capital": false,
        "independent": false,
        "continent": "Océanie",
        "nationality": false
    },
    {
        "iso2": "NO",
        "iso3": "NOR",
        "codeNum": "578",
        "nameFr": "Norvège",
        "nameEn": "Norway",
        "capital": "Oslo",
        "independent": true,
        "continent": "Europe",
        "nationality": "Norvégienne"
    },
    {
        "iso2": "NC",
        "iso3": "NCL",
        "codeNum": "540",
        "nameFr": "Nouvelle-Calédonie",
        "nameEn": "New Caledonia",
        "capital": false,
        "independent": false,
        "continent": "Océanie",
        "nationality": false
    },
    {
        "iso2": "NZ",
        "iso3": "NZL",
        "codeNum": "554",
        "nameFr": "Nouvelle-Zélande",
        "nameEn": "New Zealand",
        "capital": "Wellington",
        "independent": true,
        "continent": "Océanie",
        "nationality": "Neo-zélandaise"
    },
    {
        "iso2": "OM",
        "iso3": "OMN",
        "codeNum": "512",
        "nameFr": "Oman",
        "nameEn": "Oman",
        "capital": "Mascate",
        "independent": true,
        "continent": "Asie",
        "nationality": "Omanaise"
    },
    {
        "iso2": "UG",
        "iso3": "UGA",
        "codeNum": "800",
        "nameFr": "Ouganda",
        "nameEn": "Uganda",
        "capital": "Kampala",
        "independent": true,
        "continent": "Afrique",
        "nationality": "Ougandaise"
    },
    {
        "iso2": "UZ",
        "iso3": "UZB",
        "codeNum": "860",
        "nameFr": "Ouzbékistan",
        "nameEn": "Uzbekistan",
        "capital": "Tachkent",
        "independent": true,
        "continent": "Asie",
        "nationality": "Ouzbeke"
    },
    {
        "iso2": "PK",
        "iso3": "PAK",
        "codeNum": "586",
        "nameFr": "Pakistan",
        "nameEn": "Pakistan",
        "capital": "Islamabad",
        "independent": true,
        "continent": "Asie",
        "nationality": "Pakistanaise"
    },
    {
        "iso2": "PW",
        "iso3": "PLW",
        "codeNum": "585",
        "nameFr": "Palaos",
        "nameEn": "Palau",
        "capital": "Melekeok",
        "independent": true,
        "continent": "Océanie",
        "nationality": "Palau"
    },
    {
        "iso2": "PS",
        "iso3": "PSE",
        "codeNum": "275",
        "nameFr": "Palestine",
        "nameEn": "Palestine",
        "capital": "Jérusalem-Est",
        "independent": true,
        "continent": "Asie",
        "nationality": "Palestinienne"
    },
    {
        "iso2": "PA",
        "iso3": "PAN",
        "codeNum": "591",
        "nameFr": "Panama",
        "nameEn": "Panama",
        "capital": "Panama",
        "independent": true,
        "continent": "Amérique du Nord",
        "nationality": "Panaméenne"
    },
    {
        "iso2": "PG",
        "iso3": "PNG",
        "codeNum": "598",
        "nameFr": "Papouasie-Nouvelle-Guinée",
        "nameEn": "Papua New Guinea",
        "capital": "Port Moresby",
        "independent": true,
        "continent": "Océanie",
        "nationality": "Papouane-neoguinéenne"
    },
    {
        "iso2": "PY",
        "iso3": "PRY",
        "codeNum": "600",
        "nameFr": "Paraguay",
        "nameEn": "Paraguay",
        "capital": "Asunción",
        "independent": true,
        "continent": "Amérique du Sud",
        "nationality": "Paraguayenne"
    },
    {
        "iso2": "NL",
        "iso3": "NLD",
        "codeNum": "528",
        "nameFr": "Pays-Bas",
        "nameEn": "Netherlands",
        "capital": "Amsterdam",
        "independent": true,
        "continent": "Europe",
        "nationality": "Néerlandaise"
    },
    {
        "iso2": "PE",
        "iso3": "PER",
        "codeNum": "604",
        "nameFr": "Pérou",
        "nameEn": "Peru",
        "capital": "Lima",
        "independent": true,
        "continent": "Amérique du Sud",
        "nationality": "Péruvienne"
    },
    {
        "iso2": "PH",
        "iso3": "PHL",
        "codeNum": "608",
        "nameFr": "Philippines",
        "nameEn": "Philippines",
        "capital": "Manille",
        "independent": true,
        "continent": "Asie",
        "nationality": "Philippine"
    },
    {
        "iso2": "PN",
        "iso3": "PCN",
        "codeNum": "612",
        "nameFr": "Pitcairn",
        "nameEn": "Pitcairn",
        "capital": false,
        "independent": false,
        "continent": "Océanie",
        "nationality": false
    },
    {
        "iso2": "PL",
        "iso3": "POL",
        "codeNum": "616",
        "nameFr": "Pologne",
        "nameEn": "Poland",
        "capital": "Varsovie",
        "independent": true,
        "continent": "Europe",
        "nationality": "Polonaise"
    },
    {
        "iso2": "PF",
        "iso3": "PYF",
        "codeNum": "258",
        "nameFr": "Polynésie française",
        "nameEn": "French Polynesia",
        "capital": false,
        "independent": false,
        "continent": "Océanie",
        "nationality": false
    },
    {
        "iso2": "PR",
        "iso3": "PRI",
        "codeNum": "630",
        "nameFr": "Porto Rico",
        "nameEn": "Puerto Rico",
        "capital": false,
        "independent": false,
        "continent": "Amérique du Nord",
        "nationality": "Portoricaine"
    },
    {
        "iso2": "PT",
        "iso3": "PRT",
        "codeNum": "620",
        "nameFr": "Portugal",
        "nameEn": "Portugal",
        "capital": "Lisbonne",
        "independent": true,
        "continent": "Europe",
        "nationality": "Portugaise"
    },
    {
        "iso2": "QA",
        "iso3": "QAT",
        "codeNum": "634",
        "nameFr": "Qatar",
        "nameEn": "Qatar",
        "capital": "Doha",
        "independent": true,
        "continent": "Asie",
        "nationality": "Qatarienne"
    },
    {
        "iso2": "SY",
        "iso3": "SYR",
        "codeNum": "760",
        "nameFr": "Syrie",
        "nameEn": "Syria",
        "capital": "Damas",
        "independent": true,
        "continent": "Asie",
        "nationality": "Syrienne"
    },
    {
        "iso2": "CF",
        "iso3": "CAF",
        "codeNum": "140",
        "nameFr": "République Centrafricaine",
        "nameEn": "Central African Republic",
        "capital": "Bangui",
        "independent": true,
        "continent": "Afrique",
        "nationality": "Centrafricaine"
    },
    {
        "iso2": "RE",
        "iso3": "REU",
        "codeNum": "638",
        "nameFr": "Réunion",
        "nameEn": "Réunion",
        "capital": false,
        "independent": false,
        "continent": "Afrique",
        "nationality": false
    },
    {
        "iso2": "RO",
        "iso3": "ROU",
        "codeNum": "642",
        "nameFr": "Roumanie",
        "nameEn": "Romania",
        "capital": "Bucarest",
        "independent": true,
        "continent": "Europe",
        "nationality": "Roumaine"
    },
    {
        "iso2": "GB",
        "iso3": "GBR",
        "codeNum": "826",
        "nameFr": "Royaume-Uni",
        "nameEn": "United Kingdom",
        "capital": "Londres",
        "independent": true,
        "continent": "Europe",
        "nationality": "Britannique"
    },
    {
        "iso2": "RU",
        "iso3": "RUS",
        "codeNum": "643",
        "nameFr": "Russie",
        "nameEn": "Russia",
        "capital": "Moscou",
        "independent": true,
        "continent": "Europe",
        "nationality": "Russe"
    },
    {
        "iso2": "RW",
        "iso3": "RWA",
        "codeNum": "646",
        "nameFr": "Rwanda",
        "nameEn": "Rwanda",
        "capital": "Kigali",
        "independent": true,
        "continent": "Afrique",
        "nationality": "Rwandaise"
    },
    {
        "iso2": "EH",
        "iso3": "ESH",
        "codeNum": "732",
        "nameFr": "Sahara occidental",
        "nameEn": "Western Sahara",
        "capital": false,
        "independent": false,
        "continent": "Afrique",
        "nationality": false
    },
    {
        "iso2": "BL",
        "iso3": "BLM",
        "codeNum": "652",
        "nameFr": "Saint-Barthélemy",
        "nameEn": "Saint Barthélemy",
        "capital": false,
        "independent": false,
        "continent": "Amérique du Nord",
        "nationality": false
    },
    {
        "iso2": "SH",
        "iso3": "SHN",
        "codeNum": "654",
        "nameFr": "Sainte-Hélène",
        "nameEn": "Saint Helena",
        "capital": false,
        "independent": false,
        "continent": "Afrique",
        "nationality": false
    },
    {
        "iso2": "LC",
        "iso3": "LCA",
        "codeNum": "662",
        "nameFr": "Sainte-Lucie",
        "nameEn": "Saint Lucia",
        "capital": "Castries",
        "independent": true,
        "continent": "Amérique du Nord",
        "nationality": "Saint-Lucienne"
    },
    {
        "iso2": "KN",
        "iso3": "KNA",
        "codeNum": "659",
        "nameFr": "Saint-Kitts-et-Nevis",
        "nameEn": "Saint Kitts and Nevis",
        "capital": "Basseterre",
        "independent": true,
        "continent": "Amérique du Nord",
        "nationality": "Kittitienne-et-névicienne"
    },
    {
        "iso2": "SM",
        "iso3": "SMR",
        "codeNum": "674",
        "nameFr": "Saint-Marin",
        "nameEn": "San Marino",
        "capital": "Saint-Marin",
        "independent": true,
        "continent": "Europe",
        "nationality": "Saint-Marinaise"
    },
    {
        "iso2": "MF",
        "iso3": "MAF",
        "codeNum": "663",
        "nameFr": "Saint-Martin (partie française)",
        "nameEn": "Saint Martin (French part)",
        "capital": false,
        "independent": false,
        "continent": "Amérique du Nord",
        "nationality": false
    },
    {
        "iso2": "SX",
        "iso3": "SXM",
        "codeNum": "534",
        "nameFr": "Saint-Martin (partie néerlandaise)",
        "nameEn": "Sint Maarten (Dutch part)",
        "capital": false,
        "independent": false,
        "continent": "Amérique du Nord",
        "nationality": false
    },
    {
        "iso2": "PM",
        "iso3": "SPM",
        "codeNum": "666",
        "nameFr": "Saint-Pierre-et-Miquelon",
        "nameEn": "Saint Pierre and Miquelon",
        "capital": false,
        "independent": false,
        "continent": "Amérique du Nord",
        "nationality": false
    },
    {
        "iso2": "VA",
        "iso3": "VAT",
        "codeNum": "336",
        "nameFr": "Vatican",
        "nameEn": "Vatican",
        "capital": "Vatican",
        "independent": true,
        "continent": "Europe"
    },
    {
        "iso2": "VC",
        "iso3": "VCT",
        "codeNum": "670",
        "nameFr": "Saint-Vincent-et-les Grenadines",
        "nameEn": "Saint Vincent and the Grenadines",
        "capital": "Kingstown",
        "independent": true,
        "continent": "Amérique du Nord",
        "nationality": "Saint-Vincentaise-et-Grenadine"
    },
    {
        "iso2": "SB",
        "iso3": "SLB",
        "codeNum": "90",
        "nameFr": "Les Îles Salomon",
        "nameEn": "Solomon Islands",
        "capital": "Honiara",
        "independent": true,
        "continent": "Océanie",
        "nationality": "Salomonaise"
    },
    {
        "iso2": "WS",
        "iso3": "WSM",
        "codeNum": "882",
        "nameFr": "Samoa",
        "nameEn": "Samoa",
        "capital": "Apia",
        "independent": true,
        "continent": "Océanie",
        "nationality": "Samoane"
    },
    {
        "iso2": "AS",
        "iso3": "ASM",
        "codeNum": "16",
        "nameFr": "Samoa américaines",
        "nameEn": "American Samoa",
        "capital": false,
        "independent": false,
        "continent": "Océanie",
        "nationality": false
    },
    {
        "iso2": "ST",
        "iso3": "STP",
        "codeNum": "678",
        "nameFr": "Sao Tomé-et-Principe",
        "nameEn": "Sao Tome and Principe",
        "capital": "São Tomé",
        "independent": true,
        "continent": "Afrique",
        "nationality": "Santoméenne"
    },
    {
        "iso2": "SN",
        "iso3": "SEN",
        "codeNum": "686",
        "nameFr": "Sénégal",
        "nameEn": "Senegal",
        "capital": "Dakar",
        "independent": true,
        "continent": "Afrique",
        "nationality": "Sénégalaise"
    },
    {
        "iso2": "RS",
        "iso3": "SRB",
        "codeNum": "688",
        "nameFr": "Serbie",
        "nameEn": "Serbia",
        "capital": "Belgrade",
        "independent": true,
        "continent": "Europe",
        "nationality": "Serbe"
    },
    {
        "iso2": "SC",
        "iso3": "SYC",
        "codeNum": "690",
        "nameFr": "Seychelles",
        "nameEn": "Seychelles",
        "capital": "Victoria",
        "independent": true,
        "continent": "Afrique",
        "nationality": "Seychelloise"
    },
    {
        "iso2": "SL",
        "iso3": "SLE",
        "codeNum": "694",
        "nameFr": "Sierra Leone",
        "nameEn": "Sierra Leone",
        "capital": "Freetown",
        "independent": true,
        "continent": "Afrique",
        "nationality": "Sierra-leonaise"
    },
    {
        "iso2": "SG",
        "iso3": "SGP",
        "codeNum": "702",
        "nameFr": "Singapour",
        "nameEn": "Singapore",
        "capital": "Singapour",
        "independent": true,
        "continent": "Asie",
        "nationality": "Singapourienne"
    },
    {
        "iso2": "SK",
        "iso3": "SVK",
        "codeNum": "703",
        "nameFr": "Slovaquie",
        "nameEn": "Slovakia",
        "capital": "Bratislava",
        "independent": true,
        "continent": "Europe",
        "nationality": "Slovaque"
    },
    {
        "iso2": "SI",
        "iso3": "SVN",
        "codeNum": "705",
        "nameFr": "Slovénie",
        "nameEn": "Slovenia",
        "capital": "Ljubljana",
        "independent": true,
        "continent": "Europe",
        "nationality": "Slovène"
    },
    {
        "iso2": "SO",
        "iso3": "SOM",
        "codeNum": "706",
        "nameFr": "Somalie",
        "nameEn": "Somalia",
        "capital": "Mogadiscio",
        "independent": true,
        "continent": "Afrique",
        "nationality": "Somalienne"
    },
    {
        "iso2": "SD",
        "iso3": "SDN",
        "codeNum": "729",
        "nameFr": "Soudan",
        "nameEn": "Sudan",
        "capital": "Khartoum",
        "independent": true,
        "continent": "Afrique",
        "nationality": "Soudanaise"
    },
    {
        "iso2": "SS",
        "iso3": "SSD",
        "codeNum": "728",
        "nameFr": "Soudan du Sud",
        "nameEn": "South Sudan",
        "capital": "Djouba",
        "independent": true,
        "continent": "Afrique",
        "nationality": "Sud soudanaise"
    },
    {
        "iso2": "LK",
        "iso3": "LKA",
        "codeNum": "144",
        "nameFr": "Sri Lanka",
        "nameEn": "Sri Lanka",
        "capital": "Sri Jayawardenapura",
        "independent": true,
        "continent": "Asie",
        "nationality": "Sri-lankaise"
    },
    {
        "iso2": "SE",
        "iso3": "SWE",
        "codeNum": "752",
        "nameFr": "Suède",
        "nameEn": "Sweden",
        "capital": "Stockholm",
        "independent": true,
        "continent": "Europe",
        "nationality": "Suédoise"
    },
    {
        "iso2": "CH",
        "iso3": "CHE",
        "codeNum": "756",
        "nameFr": "Suisse",
        "nameEn": "Switzerland",
        "capital": "Berne",
        "independent": true,
        "continent": "Europe",
        "nationality": "Suisse"
    },
    {
        "iso2": "SR",
        "iso3": "SUR",
        "codeNum": "740",
        "nameFr": "Suriname",
        "nameEn": "Suriname",
        "capital": "Paramaribo",
        "independent": true,
        "continent": "Amérique du Sud",
        "nationality": "Surinamaise"
    },
    {
        "iso2": "SJ",
        "iso3": "SJM",
        "codeNum": "744",
        "nameFr": "Svalbard et l'Île Jan Mayen",
        "nameEn": "Svalbard and Jan Mayen",
        "capital": false,
        "independent": false,
        "continent": "Europe",
        "nationality": false
    },
    {
        "iso2": "TJ",
        "iso3": "TJK",
        "codeNum": "762",
        "nameFr": "Tadjikistan",
        "nameEn": "Tajikistan",
        "capital": "Douchanbe",
        "independent": true,
        "continent": "Asie",
        "nationality": "Tadjike"
    },
    {
        "iso2": "TW",
        "iso3": "TWN",
        "codeNum": "158",
        "nameFr": "Taïwan",
        "nameEn": "Taiwan",
        "capital": "Taipei",
        "independent": true,
        "continent": "Asie",
        "nationality": "Taiwanaise"
    },
    {
        "iso2": "TZ",
        "iso3": "TZA",
        "codeNum": "834",
        "nameFr": "Tanzanie",
        "nameEn": "Tanzania",
        "capital": "Dodoma",
        "independent": true,
        "continent": "Afrique",
        "nationality": "Tanzanienne"
    },
    {
        "iso2": "TD",
        "iso3": "TCD",
        "codeNum": "148",
        "nameFr": "Tchad",
        "nameEn": "Chad",
        "capital": "N'Djamena",
        "independent": true,
        "continent": "Afrique",
        "nationality": "Tchadienne"
    },
    {
        "iso2": "CZ",
        "iso3": "CZE",
        "codeNum": "203",
        "nameFr": "Tchéquie",
        "nameEn": "Czechia",
        "capital": "Prague",
        "independent": true,
        "continent": "Europe",
        "nationality": "Tchèque"
    },
    {
        "iso2": "TF",
        "iso3": "ATF",
        "codeNum": "260",
        "nameFr": "Terres australes françaises",
        "nameEn": "French Southern Territories",
        "capital": false,
        "independent": false,
        "continent": "Afrique",
        "nationality": false
    },
    {
        "iso2": "TH",
        "iso3": "THA",
        "codeNum": "764",
        "nameFr": "Thaïlande",
        "nameEn": "Thailand",
        "capital": "Bangkok",
        "independent": true,
        "continent": "Asie",
        "nationality": "Thaïlandaise"
    },
    {
        "iso2": "TL",
        "iso3": "TLS",
        "codeNum": "626",
        "nameFr": "Timor Oriental",
        "nameEn": "East Timor",
        "capital": "Dili",
        "independent": true,
        "continent": "Asie",
        "nationality": "Est-timoraise"
    },
    {
        "iso2": "TG",
        "iso3": "TGO",
        "codeNum": "768",
        "nameFr": "Togo",
        "nameEn": "Togo",
        "capital": "Lomé",
        "independent": true,
        "continent": "Afrique",
        "nationality": "Togolaise"
    },
    {
        "iso2": "TK",
        "iso3": "TKL",
        "codeNum": "772",
        "nameFr": "Tokelau",
        "nameEn": "Tokelau",
        "capital": false,
        "independent": false,
        "continent": "Océanie",
        "nationality": false
    },
    {
        "iso2": "TO",
        "iso3": "TON",
        "codeNum": "776",
        "nameFr": "Tonga",
        "nameEn": "Tonga",
        "capital": "Nukualofa",
        "independent": true,
        "continent": "Océanie",
        "nationality": "Tongienne"
    },
    {
        "iso2": "TT",
        "iso3": "TTO",
        "codeNum": "780",
        "nameFr": "Trinité-et-Tobago",
        "nameEn": "Trinidad and Tobago",
        "capital": "Port of Spain",
        "independent": true,
        "continent": "Amérique du Nord",
        "nationality": "Trinidadienne"
    },
    {
        "iso2": "TN",
        "iso3": "TUN",
        "codeNum": "788",
        "nameFr": "Tunisie",
        "nameEn": "Tunisia",
        "capital": "Tunis",
        "independent": true,
        "continent": "Afrique",
        "nationality": "Tunisienne"
    },
    {
        "iso2": "TM",
        "iso3": "TKM",
        "codeNum": "795",
        "nameFr": "Turkménistan",
        "nameEn": "Turkmenistan",
        "capital": "Achgabat",
        "independent": true,
        "continent": "Asie",
        "nationality": "Turkmène"
    },
    {
        "iso2": "TC",
        "iso3": "TCA",
        "codeNum": "796",
        "nameFr": "Les Îles Turks-et-Caïcos",
        "nameEn": "Turks and Caicos Islands",
        "capital": false,
        "independent": false,
        "continent": "Amérique du Nord",
        "nationality": false
    },
    {
        "iso2": "TR",
        "iso3": "TUR",
        "codeNum": "792",
        "nameFr": "Turquie",
        "nameEn": "Turkey",
        "capital": "Ankara",
        "independent": true,
        "continent": "Asie",
        "nationality": "Turque"
    },
    {
        "iso2": "TV",
        "iso3": "TUV",
        "codeNum": "798",
        "nameFr": "Tuvalu",
        "nameEn": "Tuvalu",
        "capital": "Fanafuti",
        "independent": true,
        "continent": "Océanie",
        "nationality": "Tuvaluane"
    },
    {
        "iso2": "UA",
        "iso3": "UKR",
        "codeNum": "804",
        "nameFr": "Ukraine",
        "nameEn": "Ukraine",
        "capital": "Kiev",
        "independent": true,
        "continent": "Europe",
        "nationality": "Ukrainienne"
    },
    {
        "iso2": "UY",
        "iso3": "URY",
        "codeNum": "858",
        "nameFr": "Uruguay",
        "nameEn": "Uruguay",
        "capital": "Montevideo",
        "independent": true,
        "continent": "Amérique du Sud",
        "nationality": "Uruguayenne"
    },
    {
        "iso2": "VU",
        "iso3": "VUT",
        "codeNum": "548",
        "nameFr": "Vanuatu",
        "nameEn": "Vanuatu",
        "capital": "Port-Vila",
        "independent": true,
        "continent": "Océanie",
        "nationality": "Vanuatuane"
    },
    {
        "iso2": "VE",
        "iso3": "VEN",
        "codeNum": "862",
        "nameFr": "Venezuela",
        "nameEn": "Venezuela",
        "capital": "Caracas",
        "independent": true,
        "continent": "Amérique du Sud",
        "nationality": "Vénézuélienne"
    },
    {
        "iso2": "VG",
        "iso3": "VGB",
        "codeNum": "92",
        "nameFr": "Les Îles Vierges britanniques",
        "nameEn": "British Virgin Islands",
        "capital": false,
        "independent": false,
        "continent": "Amérique du Nord",
        "nationality": false
    },
    {
        "iso2": "VI",
        "iso3": "VIR",
        "codeNum": "850",
        "nameFr": "Les Îles Vierges des États-Unis",
        "nameEn": "U.S Virgin Islands",
        "capital": false,
        "independent": false,
        "continent": "Amérique du Nord",
        "nationality": false
    },
    {
        "iso2": "VN",
        "iso3": "VNM",
        "codeNum": "704",
        "nameFr": "Viet Nam",
        "nameEn": "Viet Nam",
        "capital": "Hanoi",
        "independent": true,
        "continent": "Asie",
        "nationality": "Vietnamienne"
    },
    {
        "iso2": "WF",
        "iso3": "WLF",
        "codeNum": "876",
        "nameFr": "Wallis-et-Futuna",
        "nameEn": "Wallis and Futuna",
        "capital": false,
        "independent": false,
        "continent": "Océanie",
        "nationality": false
    },
    {
        "iso2": "YE",
        "iso3": "YEM",
        "codeNum": "887",
        "nameFr": "Yémen",
        "nameEn": "Yemen",
        "capital": "Sanaa",
        "independent": true,
        "continent": "Asie",
        "nationality": "Yéménite"
    },
    {
        "iso2": "ZM",
        "iso3": "ZMB",
        "codeNum": "894",
        "nameFr": "Zambie",
        "nameEn": "Zambia",
        "capital": "Lusaka",
        "independent": true,
        "continent": "Afrique",
        "nationality": "Zambienne"
    },
    {
        "iso2": "ZW",
        "iso3": "ZWE",
        "codeNum": "716",
        "nameFr": "Zimbabwe",
        "nameEn": "Zimbabwe",
        "capital": "Harare",
        "independent": true,
        "continent": "Afrique",
        "nationality": "Zimbabwéenne"
    }
]